CCSDS_OMM_VERS = 2.0
CREATION_DATE  = 
ORIGINATOR     = 

OBJECT_NAME    = SL-16 R/B
OBJECT_ID      = 1998-043G
CENTER_NAME    = EARTH
REF_FRAME      = TEME
TIME_SYSTEM    = UTC
MEAN_ELEMENT_THEORY = SGP/SGP4

EPOCH          = 2026-02-01T21:04:19.243200
MEAN_MOTION    = 14.26040624
ECCENTRICITY   = .00107922
INCLINATION    = 98.8195
RA_OF_ASC_NODE = 346.0013
ARG_OF_PERICENTER = 115.5728
MEAN_ANOMALY   = 244.6569

EPHEMERIS_TYPE = 0
CLASSIFICATION_TYPE = U
NORAD_CAT_ID   = 25400
ELEMENT_SET_NO = 999
REV_AT_EPOCH   = 43388
BSTAR          = .45141652E-4
MEAN_MOTION_DOT = .63E-6
MEAN_MOTION_DDOT = 0

CCSDS_OMM_VERS = 2.0
CREATION_DATE  = 
ORIGINATOR     = 

OBJECT_NAME    = SL-16 R/B
OBJECT_ID      = 1998-045B
CENTER_NAME    = EARTH
REF_FRAME      = TEME
TIME_SYSTEM    = UTC
MEAN_ELEMENT_THEORY = SGP/SGP4

EPOCH          = 2026-02-02T01:04:21.568512
MEAN_MOTION    = 14.16186210
ECCENTRICITY   = .00051206
INCLINATION    = 71.0094
RA_OF_ASC_NODE = 256.5351
ARG_OF_PERICENTER = 75.0737
MEAN_ANOMALY   = 285.0953

EPHEMERIS_TYPE = 0
CLASSIFICATION_TYPE = U
NORAD_CAT_ID   = 25407
ELEMENT_SET_NO = 999
REV_AT_EPOCH   = 42205
BSTAR          = -.84987661E-4
MEAN_MOTION_DOT = -.216E-5
MEAN_MOTION_DDOT = 0

CCSDS_OMM_VERS = 2.0
CREATION_DATE  = 
ORIGINATOR     = 

OBJECT_NAME    = ISS (ZARYA)
OBJECT_ID      = 1998-067A
CENTER_NAME    = EARTH
REF_FRAME      = TEME
TIME_SYSTEM    = UTC
MEAN_ELEMENT_THEORY = SGP/SGP4

EPOCH          = 2026-02-02T01:57:17.389728
MEAN_MOTION    = 15.48333853
ECCENTRICITY   = .00111275
INCLINATION    = 51.6312
RA_OF_ASC_NODE = 248.3815
ARG_OF_PERICENTER = 55.3966
MEAN_ANOMALY   = 304.8070

EPHEMERIS_TYPE = 0
CLASSIFICATION_TYPE = U
NORAD_CAT_ID   = 25544
ELEMENT_SET_NO = 999
REV_AT_EPOCH   = 55081
BSTAR          = .17109812E-3
MEAN_MOTION_DOT = .8786E-4
MEAN_MOTION_DDOT = 0

CCSDS_OMM_VERS = 2.0
CREATION_DATE  = 
ORIGINATOR     = 

OBJECT_NAME    = CZ-4B R/B
OBJECT_ID      = 1999-025C
CENTER_NAME    = EARTH
REF_FRAME      = TEME
TIME_SYSTEM    = UTC
MEAN_ELEMENT_THEORY = SGP/SGP4

EPOCH          = 2026-02-02T02:27:08.070336
MEAN_MOTION    = 14.18257812
ECCENTRICITY   = .00381999
INCLINATION    = 98.6695
RA_OF_ASC_NODE = 78.2154
ARG_OF_PERICENTER = 87.5047
MEAN_ANOMALY   = 299.0355

EPHEMERIS_TYPE = 0
CLASSIFICATION_TYPE = U
NORAD_CAT_ID   = 25732
ELEMENT_SET_NO = 999
REV_AT_EPOCH   = 38312
BSTAR          = .53122456E-4
MEAN_MOTION_DOT = .67E-6
MEAN_MOTION_DDOT = 0

CCSDS_OMM_VERS = 2.0
CREATION_DATE  = 
ORIGINATOR     = 

OBJECT_NAME    = OKEAN-O
OBJECT_ID      = 1999-039A
CENTER_NAME    = EARTH
REF_FRAME      = TEME
TIME_SYSTEM    = UTC
MEAN_ELEMENT_THEORY = SGP/SGP4

EPOCH          = 2026-02-02T03:57:12.443040
MEAN_MOTION    = 14.80273308
ECCENTRICITY   = .00019153
INCLINATION    = 97.9518
RA_OF_ASC_NODE = 93.4036
ARG_OF_PERICENTER = 91.8983
MEAN_ANOMALY   = 268.2448

EPHEMERIS_TYPE = 0
CLASSIFICATION_TYPE = U
NORAD_CAT_ID   = 25860
ELEMENT_SET_NO = 999
REV_AT_EPOCH   = 42913
BSTAR          = .99486663E-4
MEAN_MOTION_DOT = .705E-5
MEAN_MOTION_DDOT = 0

CCSDS_OMM_VERS = 2.0
CREATION_DATE  = 
ORIGINATOR     = 

OBJECT_NAME    = SL-16 R/B
OBJECT_ID      = 1999-039B
CENTER_NAME    = EARTH
REF_FRAME      = TEME
TIME_SYSTEM    = UTC
MEAN_ELEMENT_THEORY = SGP/SGP4

EPOCH          = 2026-02-02T04:16:36.457536
MEAN_MOTION    = 14.81678514
ECCENTRICITY   = .00151535
INCLINATION    = 98.0041
RA_OF_ASC_NODE = 92.3137
ARG_OF_PERICENTER = 17.9164
MEAN_ANOMALY   = 342.2579

EPHEMERIS_TYPE = 0
CLASSIFICATION_TYPE = U
NORAD_CAT_ID   = 25861
ELEMENT_SET_NO = 999
REV_AT_EPOCH   = 43160
BSTAR          = .87758191E-4
MEAN_MOTION_DOT = .638E-5
MEAN_MOTION_DDOT = 0

CCSDS_OMM_VERS = 2.0
CREATION_DATE  = 
ORIGINATOR     = 

OBJECT_NAME    = DELTA 2 R/B
OBJECT_ID      = 1999-041E
CENTER_NAME    = EARTH
REF_FRAME      = TEME
TIME_SYSTEM    = UTC
MEAN_ELEMENT_THEORY = SGP/SGP4

EPOCH          = 2026-02-02T04:28:31.039968
MEAN_MOTION    = 14.11683682
ECCENTRICITY   = .05025892
INCLINATION    = 51.7644
RA_OF_ASC_NODE = 83.0543
ARG_OF_PERICENTER = 243.5306
MEAN_ANOMALY   = 111.3245

EPHEMERIS_TYPE = 0
CLASSIFICATION_TYPE = U
NORAD_CAT_ID   = 25876
ELEMENT_SET_NO = 999
REV_AT_EPOCH   = 35801
BSTAR          = .34124504E-3
MEAN_MOTION_DOT = .1888E-4
MEAN_MOTION_DDOT = 0

CCSDS_OMM_VERS = 2.0
CREATION_DATE  = 
ORIGINATOR     = 

OBJECT_NAME    = HELIOS 1B
OBJECT_ID      = 1999-064A
CENTER_NAME    = EARTH
REF_FRAME      = TEME
TIME_SYSTEM    = UTC
MEAN_ELEMENT_THEORY = SGP/SGP4

EPOCH          = 2026-02-02T06:23:53.611872
MEAN_MOTION    = 14.87544756
ECCENTRICITY   = .00017484
INCLINATION    = 98.1736
RA_OF_ASC_NODE = 294.4632
ARG_OF_PERICENTER = 124.0221
MEAN_ANOMALY   = 236.1161

EPHEMERIS_TYPE = 0
CLASSIFICATION_TYPE = U
NORAD_CAT_ID   = 25977
ELEMENT_SET_NO = 999
REV_AT_EPOCH   = 67999
BSTAR          = .23932262E-3
MEAN_MOTION_DOT = .2114E-4
MEAN_MOTION_DDOT = 0

CCSDS_OMM_VERS = 2.0
CREATION_DATE  = 
ORIGINATOR     = 

OBJECT_NAME    = TERRA
OBJECT_ID      = 1999-068A
CENTER_NAME    = EARTH
REF_FRAME      = TEME
TIME_SYSTEM    = UTC
MEAN_ELEMENT_THEORY = SGP/SGP4

EPOCH          = 2026-02-02T05:38:03.056640
MEAN_MOTION    = 14.60973910
ECCENTRICITY   = .00011128
INCLINATION    = 97.9666
RA_OF_ASC_NODE = 88.0104
ARG_OF_PERICENTER = 317.1624
MEAN_ANOMALY   = 83.0115

EPHEMERIS_TYPE = 0
CLASSIFICATION_TYPE = U
NORAD_CAT_ID   = 25994
ELEMENT_SET_NO = 999
REV_AT_EPOCH   = 38990
BSTAR          = .10863554E-3
MEAN_MOTION_DOT = .488E-5
MEAN_MOTION_DDOT = 0

CCSDS_OMM_VERS = 2.0
CREATION_DATE  = 
ORIGINATOR     = 

OBJECT_NAME    = SL-16 R/B
OBJECT_ID      = 2000-006B
CENTER_NAME    = EARTH
REF_FRAME      = TEME
TIME_SYSTEM    = UTC
MEAN_ELEMENT_THEORY = SGP/SGP4

EPOCH          = 2026-02-01T21:49:43.528512
MEAN_MOTION    = 14.15819177
ECCENTRICITY   = .00185145
INCLINATION    = 71.0024
RA_OF_ASC_NODE = 173.0679
ARG_OF_PERICENTER = 240.0036
MEAN_ANOMALY   = 119.9250

EPHEMERIS_TYPE = 0
CLASSIFICATION_TYPE = U
NORAD_CAT_ID   = 26070
ELEMENT_SET_NO = 999
REV_AT_EPOCH   = 34349
BSTAR          = .11514085E-3
MEAN_MOTION_DOT = .179E-5
MEAN_MOTION_DDOT = 0

CCSDS_OMM_VERS = 2.0
CREATION_DATE  = 
ORIGINATOR     = 

OBJECT_NAME    = TITAN 4B R/B
OBJECT_ID      = 2000-047B
CENTER_NAME    = EARTH
REF_FRAME      = TEME
TIME_SYSTEM    = UTC
MEAN_ELEMENT_THEORY = SGP/SGP4

EPOCH          = 2026-02-02T05:52:26.308416
MEAN_MOTION    = 15.09259077
ECCENTRICITY   = .00366992
INCLINATION    = 67.9900
RA_OF_ASC_NODE = 140.1564
ARG_OF_PERICENTER = 79.4634
MEAN_ANOMALY   = 281.0646

EPHEMERIS_TYPE = 0
CLASSIFICATION_TYPE = U
NORAD_CAT_ID   = 26474
ELEMENT_SET_NO = 999
REV_AT_EPOCH   = 38756
BSTAR          = .22969485E-3
MEAN_MOTION_DOT = .3588E-4
MEAN_MOTION_DDOT = 0

CCSDS_OMM_VERS = 2.0
CREATION_DATE  = 
ORIGINATOR     = 

OBJECT_NAME    = ENVISAT
OBJECT_ID      = 2002-009A
CENTER_NAME    = EARTH
REF_FRAME      = TEME
TIME_SYSTEM    = UTC
MEAN_ELEMENT_THEORY = SGP/SGP4

EPOCH          = 2026-02-02T07:24:21.337056
MEAN_MOTION    = 14.39022840
ECCENTRICITY   = .00012788
INCLINATION    = 98.3671
RA_OF_ASC_NODE = 347.7620
ARG_OF_PERICENTER = 91.8882
MEAN_ANOMALY   = 65.4376

EPHEMERIS_TYPE = 0
CLASSIFICATION_TYPE = U
NORAD_CAT_ID   = 27386
ELEMENT_SET_NO = 999
REV_AT_EPOCH   = 25408
BSTAR          = .55954267E-4
MEAN_MOTION_DOT = .13E-5
MEAN_MOTION_DDOT = 0

