SL-16 R/B               
1 25400U 98043G   26032.87800050  .00000063  00000+0  45142-4 0  9994
2 25400  98.8195 346.0013 0010792 115.5728 244.6569 14.26040624433889
SL-16 R/B               
1 25407U 98045B   26033.04469408 -.00000216  00000+0 -84988-4 0  9994
2 25407  71.0094 256.5351 0005120  75.0737 285.0953 14.16186210422050
ISS (ZARYA)             
1 25544U 98067A   26033.08145127  .00008786  00000+0  17110-3 0  9993
2 25544  51.6312 248.3815 0011127  55.3966 304.8070 15.48333853550811
CZ-4B R/B               
1 25732U 99025C   26033.10217674  .00000067  00000+0  53122-4 0  9995
2 25732  98.6695  78.2154 0038199  87.5047 299.0355 14.18257812383121
OKEAN-O                 
1 25860U 99039A   26033.16472735  .00000705  00000+0  99487-4 0  9992
2 25860  97.9518  93.4036 0001915  91.8983 268.2448 14.80273308429130
SL-16 R/B               
1 25861U 99039B   26033.17819974  .00000638  00000+0  87758-4 0  9997
2 25861  98.0041  92.3137 0015153  17.9164 342.2579 14.81678514431605
DELTA 2 R/B             
1 25876U 99041E   26033.18647037  .00001888  00000+0  34125-3 0  9993
2 25876  51.7644  83.0543 0502589 243.5306 111.3245 14.11683682358016
HELIOS 1B               
1 25977U 99064A   26033.26659273  .00002114  00000+0  23932-3 0  9991
2 25977  98.1736 294.4632 0001748 124.0221 236.1161 14.87544756679999
TERRA                   
1 25994U 99068A   26033.23475760  .00000488  00000+0  10864-3 0  9990
2 25994  97.9666  88.0104 0001112 317.1624  83.0115 14.60973910389901
SL-16 R/B               
1 26070U 00006B   26032.90953158  .00000179  00000+0  11514-3 0  9995
2 26070  71.0024 173.0679 0018514 240.0036 119.9250 14.15819177343492
TITAN 4B R/B            
1 26474U 00047B   26033.24474894  .00003588  00000+0  22969-3 0  9994
2 26474  67.9900 140.1564 0036699  79.4634 281.0646 15.09259077387564
ENVISAT                 
1 27386U 02009A   26033.30858029  .00000130  00000+0  55954-4 0  9991
2 27386  98.3671 347.7620 0001278  91.8882  65.4376 14.39022840254088
